D-STAR ONE (SPARROW)    
1 43881U 18111F   21050.70164437  .00000743  00000-0  69911-4 0  9990
2 43881  97.6956 320.5165 0013616 130.3129 229.9285 14.96781893115477
LEMUR-2-CHRISTINAHOLT   
1 43882U 18111G   21050.47147132  .00000428  00000-0  41961-4 0  9993
2 43882  97.6961 320.7656 0012440 132.5997 227.6276 14.97209730117464
LEMUR-2-TINYKEV         
1 43883U 18111H   21050.57167790  .00000926  00000-0  84743-4 0  9995
2 43883  97.6975 320.9535 0012890 131.0543 229.1795 14.97327995115485
LEMUR-2-REMY-COLTON     
1 43884U 18111J   21050.74008144  .00000273  00000-0  28432-4 0  9990
2 43884  97.6979 321.2724 0011875 130.7348 229.4932 14.97485387115526
LEMUR-2-GUSTAVO         
1 43885U 18111K   21050.68755601  .00000957  00000-0  87365-4 0  9990
2 43885  97.6973 321.1707 0012618 129.7560 230.4775 14.97317466115508
LEMUR-2-ZO              
1 43886U 18111L   21050.70938454  .00000608  00000-0  57204-4 0  9995
2 43886  97.6991 321.3453 0012485 126.9601 233.2766 14.97415782115518
LEMUR-2-NATALIEMURRAY   
1 43887U 18111M   21050.31398811  .00000286  00000-0  29449-4 0  9992
2 43887  97.6995 321.1069 0012476 127.1254 233.1109 14.97536774117462
LEMUR-2-SARAHBETTYBOO   
1 43888U 18111N   21050.48771476  .00000903  00000-0  82213-4 0  9997
2 43888  97.6990 321.4163 0012693 127.5541 232.6836 14.97567802117490
LEMUR-2-DAISY-HARPER    
1 43889U 18111P   21050.18036609  .00000325  00000-0  32719-4 0  9991
2 43889  97.7007 321.2086 0012466 125.9644 234.2736 14.97670454117447
GRUS-1A                 
1 43890U 18111Q   21050.72921308 -.00000289  00000-0 -22505-4 0  9995
2 43890  97.6784 315.9370 0003792 164.3943 195.7401 14.93013087117233
2018-111R               
1 43891U 18111R   21050.89366065  .00000269  00000-0  14193-4 0  9997
2 43891  97.2420 307.1127 0026743   2.7926  63.4572 15.23211349119605
FLOCK 3K-4              
1 43893U 18111T   21050.45538094  .00001874  00000-0  72753-4 0  9993
2 43893  97.2469 309.3093 0021828 357.8547   2.2595 15.27107770119701
FLOCK 3K-1              
1 43894U 18111U   21050.64457288  .00001278  00000-0  50444-4 0  9991
2 43894  97.2465 309.4517 0021945 356.8227   3.2869 15.27125571119731
FLOCK 3K-2              
1 43895U 18111V   21050.44081971  .00001303  00000-0  51335-4 0  9991
2 43895  97.2465 309.2950 0022380 357.0762   3.0343 15.27137418119707
FLOCK 3K-6              
1 43896U 18111W   21050.43369890  .00001394  00000-0  54772-4 0  9998
2 43896  97.2475 309.3186 0020536 354.3411   5.7594 15.27152631119704
FLOCK 3K-5              
1 43899U 18111Z   21050.42696178  .00001361  00000-0  53436-4 0  9992
2 43899  97.2471 309.3459 0020832 353.4622   6.6342 15.27209267119708
FLOCK 3K-7              
1 43902U 18111AC  21050.15701065  .00001645  00000-0  64206-4 0  9991
2 43902  97.2474 309.0691 0021138 354.8750   5.2269 15.27111175119666
FLOCK 3K-11             
1 43904U 18111AE  21050.66684855  .00001545  00000-0  60490-4 0  9996
2 43904  97.2471 309.6212 0020300 352.0243   8.0671 15.27113388119742
FLOCK 3K-10             
1 43905U 18111AF  21050.20091968  .00001254  00000-0  49651-4 0  9997
2 43905  97.2474 309.1862 0020066 353.0308   7.0650 15.27100605119670
FLOCK 3K-9              
1 43906U 18111AG  21050.67398502  .00004321  00000-0  16426-3 0  9994
2 43906  97.2461 309.5846 0020622 352.1198   7.9714 15.27118050119749
ZACUBE-2                
1 43907U 18111AH  21050.87606644  .00000710  00000-0  31141-4 0  9996
2 43907  97.2452 308.8927 0021356 354.3491  64.1159 15.24965092119715
LUME 1                  
1 43908U 18111AJ  21050.69271704  .00001339  00000-0  54926-4 0  9996
2 43908  97.2461 309.1116 0020622 353.4507   6.6458 15.25771708119716
YUNHAI-2 1              
1 43909U 18112A   21050.89209650 -.00000225  00000-0 -25582-4 0  9992
2 43909  50.0133   2.2828 0000402 249.2679 110.8231 14.27703911113394
YUNHAI-2 2              
1 43910U 18112B   21050.70944306 -.00000203  00000-0 -16987-4 0  9993
2 43910  50.0135  66.5630 0005333 241.1405 118.8967 14.27670582112488
YUNHAI-2 3              
1 43911U 18112C   21050.72907827 -.00000177  00000-0 -64509-5 0  9997
2 43911  50.0160 305.8804 0000776 143.6475 216.4517 14.27665706114163
YUNHAI-2 4              
1 43912U 18112D   21050.84708062 -.00000166  00000-0 -20003-5 0  9990
2 43912  50.0121 245.6643 0015755   8.6505 351.4687 14.27664716109847
YUNHAI-2 5              
1 43913U 18112E   21050.52436061  .00000046  00000-0  83507-4 0  9995
2 43913  50.0082 126.8936 0005041  25.6615 334.4540 14.27688436111608
HONGYAN 1 (CHONGQING)   
1 43914U 18112F   21050.60378979 -.00000127  00000-0  32321-5 0  9998
2 43914  50.0071 184.8874 0006728 102.4527 257.7101 13.43699276105313
YUNHAI-2 6              
1 43915U 18112G   21050.75817215 -.00000234  00000-0 -29395-4 0  9992
2 43915  50.0117 186.1366 0007463 353.9282   6.1549 14.27677638110739
TJS-3 AKM               
1 43917U 18110C   21050.28382471  .00000059  00000-0  00000-0 0  9992
2 43917   0.5824 278.7020 0004100 313.2905  78.4923  1.00279025  7870
CHINASAT 2D (ZX 2D)     
1 43920U 19001A   21050.43815094 -.00000335  00000-0  00000-0 0  9993
2 43920   0.0485 286.9308 0001165 180.6087 329.7421  1.00268633 34583
IRIDIUM 180             
1 43922U 19002A   21050.80365415  .00000071  00000-0  18312-4 0  9999
2 43922  86.3929  85.7587 0003009  76.3978 283.7553 14.34217596110480
IRIDIUM 176             
1 43923U 19002B   21050.35056200  .00000139  00000-0  18054-4 0  9997
2 43923  86.6063  85.9801 0002410  87.4604 272.6889 14.72253648113255
IRIDIUM 168             
1 43924U 19002C   21050.37869985  .00000068  00000-0  17238-4 0  9996
2 43924  86.3931  85.9587 0002317  85.5815 274.5646 14.34219120110363
IRIDIUM 173             
1 43925U 19002D   21050.71485402  .00000064  00000-0  15866-4 0  9994
2 43925  86.3927  85.7860 0002360  88.1640 271.9826 14.34219314110405
IRIDIUM 169             
1 43926U 19002E   21050.44667823  .00000077  00000-0  18674-4 0  9998
2 43926  86.4222 117.5120 0002918 247.9061 112.1827 14.38604808110776
IRIDIUM 172             
1 43927U 19002F   21050.70851270  .00000066  00000-0  16371-4 0  9999
2 43927  86.3927  85.7906 0002407  86.3963 273.7508 14.34216760110407
IRIDIUM 175             
1 43928U 19002G   21050.34436894  .00000133  00000-0  17152-4 0  9994
2 43928  86.6048  85.8258 0003011  99.9116 260.2441 14.72254965113241
IRIDIUM 171             
1 43929U 19002H   21050.75923725  .00000068  00000-0  17343-4 0  9993
2 43929  86.3937  85.8599 0002288  85.7513 274.3944 14.34220144110402
IRIDIUM 170             
1 43930U 19002J   21050.35676602  .00000137  00000-0  17855-4 0  9995
2 43930  86.6063  85.9842 0002681  91.5851 268.5673 14.72253701113264
IRIDIUM 167             
1 43931U 19002K   21050.82266558  .00000069  00000-0  17499-4 0  9991
2 43931  86.3928  85.7482 0002761  77.1681 282.9823 14.34219961110419
RAPIS-1                 
1 43932U 19003A   21050.45223686  .00000801  00000-0  55286-4 0  9997
2 43932  97.2074  85.4192 0002522 336.8317  23.2798 15.08319557115342
ORIGAMISAT-1            
1 43933U 19003B   21050.42773065  .00007375  00000-0  30498-3 0  9996
2 43933  97.1993  96.3829 0019066  92.7918 267.5502 15.24084697116110
RISESAT                 
1 43934U 19003C   21050.82487999  .00000422  00000-0  21152-4 0  9993
2 43934  97.1962  96.5740 0018503  82.9578  28.1801 15.22276871116162
MICRODRAGON             
1 43935U 19003D   21050.40157994  .00000850  00000-0  38824-4 0  9996
2 43935  97.1989  96.8257 0019731  84.1377 276.2108 15.22998581116135
NEXUS (FO-99)           
1 43937U 19003F   21050.77607108  .00001417  00000-0  58715-4 0  9996
2 43937  97.1941  98.6023 0025151  71.4295 288.9673 15.25206792116324
ALE-1                   
1 43938U 19003G   21050.37978149  .00004391  00000-0  16788-3 0  9996
2 43938  97.2051  99.1108 0025152  75.2399 285.1625 15.26807844116272
AOBA VELOX-IV           
1 43940U 19003J   21050.79497449  .00002718  00000-0  10665-3 0  9993
2 43940  97.1962  99.2755 0024704  69.0436 291.3443 15.26278595116350
LINGQUE 1A              
1 43942U 19005A   21050.89241228  .00007109  00000-0  32994-3 0  9998
2 43942  97.5089 152.5578 0016847 180.4586 290.0341 15.20217774115229
JILIN-01-09             
1 43943U 19005B   21050.89945387  .00000113  00000-0  10276-4 0  9994
2 43943  97.5056 148.2976 0014459 180.7645 244.7982 15.12280297114939
XIAOXIANG 3             
1 43944U 19005C   21050.86815609  .00001702  00000-0  99238-4 0  9995
2 43944  97.5057 148.6314 0013009 177.7866 291.2001 15.13252663114949
JILIN-01-10             
1 43946U 19005E   21050.75001140  .00000765  00000-0  47769-4 0  9992
2 43946  97.5056 148.2008 0019917 176.1021 335.0910 15.12307869114849
CATSAT-2                
1 44029U 98067PV  21050.58063428  .00103681  00000-0  41853-3 0  9996
2 44029  51.6381 130.4979 0004841 330.3877  29.6852 15.85533693117409
DELPHINI                
1 44030U 98067PW  21050.48853218  .00196257  26165-4  49425-3 0  9999
2 44030  51.6253 124.2513 0006448 351.5450   8.5448 15.95181614117445
UNITE                   
1 44031U 98067PX  21050.36557793  .00021878  00000-0  18489-3 0  9994
2 44031  51.6364 151.6200 0002623 293.0531  67.0190 15.69681348117070
CATSAT-1                
1 44033U 98067PZ  21049.82279634  .00092375  00000-0  37291-3 0  9992
2 44033  51.6372 134.4465 0004346 329.7378  30.3374 15.85580680117198
HELLAS-SAT 4 & SGS-1    
1 44034U 19007A   21050.29493632  .00000155  00000-0  00000-0 0  9999
2 44034   0.0701 123.3650 0002586  38.3395 132.9072  1.00271330  7869
GSAT-31                 
1 44035U 19007B   21050.06286203  .00000128  00000-0  00000-0 0  9999
2 44035   0.0874 273.3975 0004319  24.7656 281.5451  1.00272878  7480
2018-092C               
1 44041U 18092C   21050.70651552  .00001057  00000-0  37197-4 0  9996
2 44041  51.6406 272.6989 0003932 147.7584 323.4694 15.38921235114201
